STARLINK-32572          
1 61952U 24209P   26027.95874008  .00048232  00000+0  16270-2 0  9994
2 61952  53.1611 331.3935 0000961 124.7673 235.3419 15.30259861 68668
STARLINK-32585          
1 61953U 24209Q   26027.14763689  .00029978  00000+0  10194-2 0  9993
2 61953  53.1586 335.5789 0001292 105.6249 254.4894 15.30226377 68539
STARLINK-32574          
1 61954U 24209R   26027.81133831  .00040433  00000+0  13687-2 0  9997
2 61954  53.1599 332.6058 0001568  70.6674 289.4496 15.30226330 68658
STARLINK-32583          
1 61955U 24209S   26027.85976652  .00032038  00000+0  10885-2 0  9997
2 61955  53.1599 332.1979 0001063  97.0325 263.0797 15.30219066 68663
STARLINK-32273          
1 61956U 24209T   26027.11492459  .00031012  00000+0  10544-2 0  9998
2 61956  53.1620 335.3686 0001341  84.1947 275.9206 15.30214153 68530
STARLINK-32359          
1 61957U 24209U   26027.85343695  .00035680  00000+0  12101-2 0  9993
2 61957  53.1610 332.1586 0001738  55.8630 304.2536 15.30224870 68661
STARLINK-32566          
1 61958U 24209V   26027.56896199  .00023057  00000+0  78779-3 0  9993
2 61958  53.1614 333.2259 0001566  92.5913 267.5267 15.30215856 68628
STARLINK-32499          
1 61959U 24210A   26027.48982890  .00031657  00000+0  11544-2 0  9992
2 61959  43.0017  52.1024 0002780  84.9441 275.1728 15.27595408 68628
STARLINK-32372          
1 61960U 24210B   26027.75907082  .00051004  00000+0  18492-2 0  9991
2 61960  43.0031  50.6821 0001523 278.0475  82.0204 15.27597167 68528
STARLINK-32452          
1 61961U 24210C   26026.33053093  .00031778  00000+0  11583-2 0  9999
2 61961  42.9986  51.9579 0000684 139.4732 220.6171 15.27609226 68515
STARLINK-32458          
1 61962U 24210D   26027.33335648  .00032045  00000+0  11701-2 0  9990
2 61962  43.0039  39.0470 0001269 281.2315 336.2809 15.27546780  5874
STARLINK-32487          
1 61963U 24210E   26027.39631142  .00036730  00000+0  13370-2 0  9994
2 61963  43.0018  53.1145 0000516 294.0084  66.0714 15.27594654 68591
STARLINK-32513          
1 61964U 24210F   26027.99428803  .00030998  00000+0  11302-2 0  9992
2 61964  43.0001  35.1584 0001053  60.4431 299.6526 15.27611354 68850
STARLINK-32514          
1 61965U 24210G   26027.96905407  .00035127  00000+0  12791-2 0  9992
2 61965  43.0013  42.7540 0001436 296.5791  63.4913 15.27601116 68768
STARLINK-32498          
1 61966U 24210H   26027.71861493  .00075390  00000+0  27145-2 0  9997
2 61966  43.0011  36.5282 0000846 281.6942  78.3815 15.27662408 68811
STARLINK-32518          
1 61967U 24210J   26027.73316188  .00039753  00000+0  14443-2 0  9996
2 61967  42.9988  44.2328 0003049 277.2588  82.7917 15.27623966 68598
