[{"OBJECT_NAME":"STARLINK-32572","OBJECT_ID":"2024-209P","EPOCH":"2026-01-27T23:00:35.142912","MEAN_MOTION":15.30259861,"ECCENTRICITY":9.613e-5,"INCLINATION":53.1611,"RA_OF_ASC_NODE":331.3935,"ARG_OF_PERICENTER":124.7673,"MEAN_ANOMALY":235.3419,"EPHEMERIS_TYPE":0,"CLASSIFICATION_TYPE":"U","NORAD_CAT_ID":61952,"ELEMENT_SET_NO":999,"REV_AT_EPOCH":6866,"BSTAR":0.0016270352,"MEAN_MOTION_DOT":0.00048232,"MEAN_MOTION_DDOT":0},{"OBJECT_NAME":"STARLINK-32585","OBJECT_ID":"2024-209Q","EPOCH":"2026-01-27T03:32:35.827296","MEAN_MOTION":15.30226377,"ECCENTRICITY":0.00012926,"INCLINATION":53.1586,"RA_OF_ASC_NODE":335.5789,"ARG_OF_PERICENTER":105.6249,"MEAN_ANOMALY":254.4894,"EPHEMERIS_TYPE":0,"CLASSIFICATION_TYPE":"U","NORAD_CAT_ID":61953,"ELEMENT_SET_NO":999,"REV_AT_EPOCH":6853,"BSTAR":0.0010193749,"MEAN_MOTION_DOT":0.00029978,"MEAN_MOTION_DDOT":0},{"OBJECT_NAME":"STARLINK-32574","OBJECT_ID":"2024-209R","EPOCH":"2026-01-27T19:28:19.629984","MEAN_MOTION":15.3022633,"ECCENTRICITY":0.0001568,"INCLINATION":53.1599,"RA_OF_ASC_NODE":332.6058,"ARG_OF_PERICENTER":70.6674,"MEAN_ANOMALY":289.4496,"EPHEMERIS_TYPE":0,"CLASSIFICATION_TYPE":"U","NORAD_CAT_ID":61954,"ELEMENT_SET_NO":999,"REV_AT_EPOCH":6865,"BSTAR":0.0013687216,"MEAN_MOTION_DOT":0.00040433,"MEAN_MOTION_DDOT":0},{"OBJECT_NAME":"STARLINK-32583","OBJECT_ID":"2024-209S","EPOCH":"2026-01-27T20:38:03.827328","MEAN_MOTION":15.30219066,"ECCENTRICITY":0.00010633,"INCLINATION":53.1599,"RA_OF_ASC_NODE":332.1979,"ARG_OF_PERICENTER":97.0325,"MEAN_ANOMALY":263.0797,"EPHEMERIS_TYPE":0,"CLASSIFICATION_TYPE":"U","NORAD_CAT_ID":61955,"ELEMENT_SET_NO":999,"REV_AT_EPOCH":6866,"BSTAR":0.0010885205,"MEAN_MOTION_DOT":0.00032038,"MEAN_MOTION_DDOT":0},{"OBJECT_NAME":"STARLINK-32273","OBJECT_ID":"2024-209T","EPOCH":"2026-01-27T02:45:29.484576","MEAN_MOTION":15.30214153,"ECCENTRICITY":0.00013419,"INCLINATION":53.162,"RA_OF_ASC_NODE":335.3686,"ARG_OF_PERICENTER":84.1947,"MEAN_ANOMALY":275.9206,"EPHEMERIS_TYPE":0,"CLASSIFICATION_TYPE":"U","NORAD_CAT_ID":61956,"ELEMENT_SET_NO":999,"REV_AT_EPOCH":6853,"BSTAR":0.0010543505,"MEAN_MOTION_DOT":0.00031012,"MEAN_MOTION_DDOT":0},{"OBJECT_NAME":"STARLINK-32359","OBJECT_ID":"2024-209U","EPOCH":"2026-01-27T20:28:56.952480","MEAN_MOTION":15.3022487,"ECCENTRICITY":0.00017384,"INCLINATION":53.161,"RA_OF_ASC_NODE":332.1586,"ARG_OF_PERICENTER":55.863,"MEAN_ANOMALY":304.2536,"EPHEMERIS_TYPE":0,"CLASSIFICATION_TYPE":"U","NORAD_CAT_ID":61957,"ELEMENT_SET_NO":999,"REV_AT_EPOCH":6866,"BSTAR":0.0012100764,"MEAN_MOTION_DOT":0.0003568,"MEAN_MOTION_DDOT":0},{"OBJECT_NAME":"STARLINK-32566","OBJECT_ID":"2024-209V","EPOCH":"2026-01-27T13:39:18.315936","MEAN_MOTION":15.30215856,"ECCENTRICITY":0.0001566,"INCLINATION":53.1614,"RA_OF_ASC_NODE":333.2259,"ARG_OF_PERICENTER":92.5913,"MEAN_ANOMALY":267.5267,"EPHEMERIS_TYPE":0,"CLASSIFICATION_TYPE":"U","NORAD_CAT_ID":61958,"ELEMENT_SET_NO":999,"REV_AT_EPOCH":6862,"BSTAR":0.00078779,"MEAN_MOTION_DOT":0.00023057,"MEAN_MOTION_DDOT":0},{"OBJECT_NAME":"STARLINK-32499","OBJECT_ID":"2024-210A","EPOCH":"2026-01-27T11:45:21.216960","MEAN_MOTION":15.27595408,"ECCENTRICITY":0.00027808,"INCLINATION":43.0017,"RA_OF_ASC_NODE":52.1024,"ARG_OF_PERICENTER":84.9441,"MEAN_ANOMALY":275.1728,"EPHEMERIS_TYPE":0,"CLASSIFICATION_TYPE":"U","NORAD_CAT_ID":61959,"ELEMENT_SET_NO":999,"REV_AT_EPOCH":6862,"BSTAR":0.0011543895,"MEAN_MOTION_DOT":0.00031657,"MEAN_MOTION_DDOT":0},{"OBJECT_NAME":"STARLINK-32372","OBJECT_ID":"2024-210B","EPOCH":"2026-01-27T18:13:03.718848","MEAN_MOTION":15.27597167,"ECCENTRICITY":0.00015233,"INCLINATION":43.0031,"RA_OF_ASC_NODE":50.6821,"ARG_OF_PERICENTER":278.0475,"MEAN_ANOMALY":82.0204,"EPHEMERIS_TYPE":0,"CLASSIFICATION_TYPE":"U","NORAD_CAT_ID":61960,"ELEMENT_SET_NO":999,"REV_AT_EPOCH":6852,"BSTAR":0.001849238,"MEAN_MOTION_DOT":0.00051004,"MEAN_MOTION_DDOT":0},{"OBJECT_NAME":"STARLINK-32452","OBJECT_ID":"2024-210C","EPOCH":"2026-01-26T07:55:57.872352","MEAN_MOTION":15.27609226,"ECCENTRICITY":6.84e-5,"INCLINATION":42.9986,"RA_OF_ASC_NODE":51.9579,"ARG_OF_PERICENTER":139.4732,"MEAN_ANOMALY":220.6171,"EPHEMERIS_TYPE":0,"CLASSIFICATION_TYPE":"U","NORAD_CAT_ID":61961,"ELEMENT_SET_NO":999,"REV_AT_EPOCH":6851,"BSTAR":0.0011583,"MEAN_MOTION_DOT":0.00031778,"MEAN_MOTION_DDOT":0},{"OBJECT_NAME":"STARLINK-32458","OBJECT_ID":"2024-210D","EPOCH":"2026-01-27T08:00:01.999872","MEAN_MOTION":15.2754678,"ECCENTRICITY":0.00012698,"INCLINATION":43.0039,"RA_OF_ASC_NODE":39.047,"ARG_OF_PERICENTER":281.2315,"MEAN_ANOMALY":336.2809,"EPHEMERIS_TYPE":0,"CLASSIFICATION_TYPE":"U","NORAD_CAT_ID":61962,"ELEMENT_SET_NO":999,"REV_AT_EPOCH":587,"BSTAR":0.0011701447,"MEAN_MOTION_DOT":0.00032045,"MEAN_MOTION_DDOT":0},{"OBJECT_NAME":"STARLINK-32487","OBJECT_ID":"2024-210E","EPOCH":"2026-01-27T09:30:41.306688","MEAN_MOTION":15.27594654,"ECCENTRICITY":5.169e-5,"INCLINATION":43.0018,"RA_OF_ASC_NODE":53.1145,"ARG_OF_PERICENTER":294.0084,"MEAN_ANOMALY":66.0714,"EPHEMERIS_TYPE":0,"CLASSIFICATION_TYPE":"U","NORAD_CAT_ID":61963,"ELEMENT_SET_NO":999,"REV_AT_EPOCH":6859,"BSTAR":0.0013370371,"MEAN_MOTION_DOT":0.0003673,"MEAN_MOTION_DDOT":0},{"OBJECT_NAME":"STARLINK-32513","OBJECT_ID":"2024-210F","EPOCH":"2026-01-27T23:51:46.485792","MEAN_MOTION":15.27611354,"ECCENTRICITY":0.0001053,"INCLINATION":43.0001,"RA_OF_ASC_NODE":35.1584,"ARG_OF_PERICENTER":60.4431,"MEAN_ANOMALY":299.6526,"EPHEMERIS_TYPE":0,"CLASSIFICATION_TYPE":"U","NORAD_CAT_ID":61964,"ELEMENT_SET_NO":999,"REV_AT_EPOCH":6885,"BSTAR":0.0011301693,"MEAN_MOTION_DOT":0.00030998,"MEAN_MOTION_DDOT":0},{"OBJECT_NAME":"STARLINK-32514","OBJECT_ID":"2024-210G","EPOCH":"2026-01-27T23:15:26.271648","MEAN_MOTION":15.27601116,"ECCENTRICITY":0.00014362,"INCLINATION":43.0013,"RA_OF_ASC_NODE":42.754,"ARG_OF_PERICENTER":296.5791,"MEAN_ANOMALY":63.4913,"EPHEMERIS_TYPE":0,"CLASSIFICATION_TYPE":"U","NORAD_CAT_ID":61965,"ELEMENT_SET_NO":999,"REV_AT_EPOCH":6876,"BSTAR":0.0012791362,"MEAN_MOTION_DOT":0.00035127,"MEAN_MOTION_DDOT":0},{"OBJECT_NAME":"STARLINK-32498","OBJECT_ID":"2024-210H","EPOCH":"2026-01-27T17:14:48.329952","MEAN_MOTION":15.27662408,"ECCENTRICITY":8.463e-5,"INCLINATION":43.0011,"RA_OF_ASC_NODE":36.5282,"ARG_OF_PERICENTER":281.6942,"MEAN_ANOMALY":78.3815,"EPHEMERIS_TYPE":0,"CLASSIFICATION_TYPE":"U","NORAD_CAT_ID":61966,"ELEMENT_SET_NO":999,"REV_AT_EPOCH":6881,"BSTAR":0.002714467,"MEAN_MOTION_DOT":0.0007539,"MEAN_MOTION_DDOT":0},{"OBJECT_NAME":"STARLINK-32518","OBJECT_ID":"2024-210J","EPOCH":"2026-01-27T17:35:45.186432","MEAN_MOTION":15.27623966,"ECCENTRICITY":0.00030492,"INCLINATION":42.9988,"RA_OF_ASC_NODE":44.2328,"ARG_OF_PERICENTER":277.2588,"MEAN_ANOMALY":82.7917,"EPHEMERIS_TYPE":0,"CLASSIFICATION_TYPE":"U","NORAD_CAT_ID":61967,"ELEMENT_SET_NO":999,"REV_AT_EPOCH":6859,"BSTAR":0.0014442867,"MEAN_MOTION_DOT":0.00039753,"MEAN_MOTION_DDOT":0}]
